ONEWEB-0446             
1 51640U 22012U   25293.48452140  .00000643  00000+0  18051-2 0  9991
2 51640  87.8758  84.0770 0001822  91.0105 269.1231 13.10374042177932
ONEWEB-0448             
1 51641U 22012V   25293.48950070  .00000657  00000+0  18461-2 0  9997
2 51641  87.8757  84.0757 0001524  95.7662 264.3639 13.10371877177904
ONEWEB-0449             
1 51642U 22012W   25293.64719290  .00000643  00000+0  18065-2 0  9998
2 51642  87.8754  84.0139 0001319  78.7744 281.3531 13.10371203177936
ONEWEB-0451             
1 51643U 22012X   25293.63023586  .00000087  00000+0  19021-3 0  9990
2 51643  87.9114  53.4643 0001535  94.2689 265.8618 13.17649177182113
ONEWEB-0452             
1 51644U 22012Y   25293.62853401  .00000127  00000+0  29277-3 0  9996
2 51644  87.9107  53.5242 0001366  98.0923 262.0363 13.17648038182129
ONEWEB-0456             
1 51646U 22012AA  25293.65714061  .00000199  00000+0  53433-3 0  9999
2 51646  87.8768  83.9772 0001641 100.7994 259.3318 13.10369556177977
ONEWEB-0457             
1 51647U 22012AB  25293.48119896  .00000571  00000+0  15982-2 0  9996
2 51647  87.8759  84.0654 0001704  79.2857 280.8462 13.10374699177958
ONEWEB-0458             
1 51648U 22012AC  25293.65548608  .00000336  00000+0  92763-3 0  9995
2 51648  87.8758  84.0016 0001415  93.8097 266.3192 13.10369588177935
